start=new Date('2022-01-25T00:00:00.000Z').valueOf();
sats=[{"COUNTRY_CODE":"US","RA_OF_ASC_NODE":"232.0693","APOAPSIS":"550.948","MEAN_MOTION_DDOT":"0.0000000000000","MEAN_MOTION":"15.05590413","EPOCH":"2022-01-24T20:32:35.994624","INCLINATION":"52.9994","MEAN_ANOMALY":"284.1511","ECCENTRICITY":"0.00018070","TLE_LINE1":"1 46169U 20057BE  22024.85597216  .00000978  00000-0  86297-4 0  9993","OBJECT_TYPE":"PAYLOAD","SITE":"AFETR","MEAN_MOTION_DOT":"0.00000978","SEMIMAJOR_AXIS":"6927.831","LAUNCH_DATE":"2020-08-18","MEAN_ELEMENT_THEORY":"SGP4","NORAD_CAT_ID":"46169","PERIOD":"95.644","ARG_OF_PERICENTER":"75.9678","PERIAPSIS":"548.444","OBJECT_ID":"2020-057BE","DECAY_DATE":null,"OBJECT_NAME":"STARLINK-1628","TIME_SYSTEM":"UTC","FILE":"3282614","BSTAR":"0.00008629700000","CENTER_NAME":"EARTH","REV_AT_EPOCH":"7922","REF_FRAME":"TEME","ELEMENT_SET_NO":"999","EPHEMERIS_TYPE":"0","CLASSIFICATION_TYPE":"U","TLE_LINE2":"2 46169  52.9994 232.0693 0001807  75.9678 284.1511 15.05590413 79224","GP_ID":"194567853","RCS_SIZE":"LARGE"},{"INCLINATION":"53.0531","MEAN_ANOMALY":"287.8311","ECCENTRICITY":"0.00021040","MEAN_MOTION":"15.06394255","EPOCH":"2022-01-24T21:24:00.736416","MEAN_MOTION_DDOT":"0.0000000000000","COUNTRY_CODE":"US","RA_OF_ASC_NODE":"211.9162","APOAPSIS":"548.688","NORAD_CAT_ID":"46171","MEAN_ELEMENT_THEORY":"SGP4","MEAN_MOTION_DOT":"-0.00000867","SEMIMAJOR_AXIS":"6925.366","LAUNCH_DATE":"2020-08-18","SITE":"AFETR","TLE_LINE1":"1 46171U 20057BG  22024.89167519 -.00000867  00000-0 -39304-4 0  9995","OBJECT_TYPE":"PAYLOAD","DECAY_DATE":null,"OBJECT_NAME":"STARLINK-1633","PERIAPSIS":"545.774","OBJECT_ID":"2020-057BG","PERIOD":"95.593","ARG_OF_PERICENTER":"72.2908","GP_ID":"194568604","RCS_SIZE":"LARGE","CLASSIFICATION_TYPE":"U","ELEMENT_SET_NO":"999","EPHEMERIS_TYPE":"0","TLE_LINE2":"2 46171  53.0531 211.9162 0002104  72.2908 287.8311 15.06394255 80799","TIME_SYSTEM":"UTC","FILE":"3282614","BSTAR":"-0.00003930400000","CENTER_NAME":"EARTH","REF_FRAME":"TEME","REV_AT_EPOCH":"8079"},{"TLE_LINE1":"1 46172U 20057BH  22024.84008596  .00000916  00000-0  80427-4 0  9995","OBJECT_TYPE":"PAYLOAD","SITE":"AFETR","MEAN_MOTION_DOT":"0.00000916","SEMIMAJOR_AXIS":"6925.375","LAUNCH_DATE":"2020-08-18","MEAN_ELEMENT_THEORY":"SGP4","NORAD_CAT_ID":"46172","COUNTRY_CODE":"US","RA_OF_ASC_NODE":"212.1621","APOAPSIS":"548.950","MEAN_MOTION_DDOT":"0.0000000000000","MEAN_MOTION":"15.06391397","EPOCH":"2022-01-24T20:09:43.426944","MEAN_ANOMALY":"285.6747","INCLINATION":"53.0540","ECCENTRICITY":"0.00024700","FILE":"3282614","TIME_SYSTEM":"UTC","BSTAR":"0.00008042700000","CENTER_NAME":"EARTH","REV_AT_EPOCH":"8078","REF_FRAME":"TEME","EPHEMERIS_TYPE":"0","ELEMENT_SET_NO":"999","CLASSIFICATION_TYPE":"U","TLE_LINE2":"2 46172  53.0540 212.1621 0002470  74.4514 285.6747 15.06391397 80788","GP_ID":"194569354","RCS_SIZE":"LARGE","PERIOD":"95.593","ARG_OF_PERICENTER":"74.4514","PERIAPSIS":"545.529","OBJECT_ID":"2020-057BH","DECAY_DATE":null,"OBJECT_NAME":"STARLINK-1635"},{"NORAD_CAT_ID":"46173","MEAN_ELEMENT_THEORY":"SGP4","LAUNCH_DATE":"2020-08-18","SEMIMAJOR_AXIS":"6925.361","MEAN_MOTION_DOT":"-0.00000068","SITE":"AFETR","TLE_LINE1":"1 46173U 20057BJ  22024.88614804 -.00000068  00000-0  14313-4 0  9995","OBJECT_TYPE":"PAYLOAD","ECCENTRICITY":"0.00018120","INCLINATION":"53.0539","MEAN_ANOMALY":"285.9578","EPOCH":"2022-01-24T21:16:03.190656","MEAN_MOTION":"15.06395923","MEAN_MOTION_DDOT":"0.0000000000000","APOAPSIS":"548.481","COUNTRY_CODE":"US","RA_OF_ASC_NODE":"231.9502","RCS_SIZE":"LARGE","GP_ID":"194569098","TLE_LINE2":"2 46173  53.0539 231.9502 0001812  74.1611 285.9578 15.06395923 79252","ELEMENT_SET_NO":"999","EPHEMERIS_TYPE":"0","CLASSIFICATION_TYPE":"U","BSTAR":"0.00001431300000","CENTER_NAME":"EARTH","REF_FRAME":"TEME","REV_AT_EPOCH":"7925","FILE":"3282614","TIME_SYSTEM":"UTC","OBJECT_NAME":"STARLINK-1640","DECAY_DATE":null,"OBJECT_ID":"2020-057BJ","PERIAPSIS":"545.971","ARG_OF_PERICENTER":"74.1611","PERIOD":"95.592"},{"CENTER_NAME":"EARTH","BSTAR":"-0.00000545500000","REV_AT_EPOCH":"7924","REF_FRAME":"TEME","TIME_SYSTEM":"UTC","FILE":"3282614","TLE_LINE2":"2 46174  53.0543 232.2094 0001875  74.1806 285.9390 15.06394111 79242","EPHEMERIS_TYPE":"0","ELEMENT_SET_NO":"999","CLASSIFICATION_TYPE":"U","RCS_SIZE":"LARGE","GP_ID":"194568353","ARG_OF_PERICENTER":"74.1806","PERIOD":"95.593","OBJECT_ID":"2020-057BK","PERIAPSIS":"545.933","OBJECT_NAME":"STARLINK-1641","DECAY_DATE":null,"SITE":"AFETR","TLE_LINE1":"1 46174U 20057BK  22024.82716456 -.00000363  00000-0 -54550-5 0  9993","OBJECT_TYPE":"PAYLOAD","LAUNCH_DATE":"2020-08-18","SEMIMAJOR_AXIS":"6925.367","MEAN_MOTION_DOT":"-0.00000363","MEAN_ELEMENT_THEORY":"SGP4","NORAD_CAT_ID":"46174","APOAPSIS":"548.530","COUNTRY_CODE":"US","RA_OF_ASC_NODE":"232.2094","MEAN_MOTION_DDOT":"0.0000000000000","EPOCH":"2022-01-24T19:51:07.017984","MEAN_MOTION":"15.06394111","ECCENTRICITY":"0.00018750","MEAN_ANOMALY":"285.9390","INCLINATION":"53.0543"},{"EPHEMERIS_TYPE":"0","ELEMENT_SET_NO":"999","CLASSIFICATION_TYPE":"U","TLE_LINE2":"2 46325  53.0540 247.1630 0001777  65.2214 294.8960 15.06400757 78732","FILE":"3282614","TIME_SYSTEM":"UTC","BSTAR":"0.00009630300000","CENTER_NAME":"EARTH","REF_FRAME":"TEME","REV_AT_EPOCH":"7873","GP_ID":"194570368","RCS_SIZE":"LARGE","PERIAPSIS":"545.981","OBJECT_ID":"2020-062A","PERIOD":"95.592","ARG_OF_PERICENTER":"65.2214","DECAY_DATE":null,"OBJECT_NAME":"STARLINK-1734","MEAN_MOTION_DOT":"0.00001153","LAUNCH_DATE":"2020-09-03","SEMIMAJOR_AXIS":"6925.346","TLE_LINE1":"1 46325U 20062A   22024.83867734  .00001153  00000-0  96303-4 0  9991","SITE":"AFETR","OBJECT_TYPE":"PAYLOAD","NORAD_CAT_ID":"46325","MEAN_ELEMENT_THEORY":"SGP4","MEAN_MOTION_DDOT":"0.0000000000000","COUNTRY_CODE":"US","RA_OF_ASC_NODE":"247.1630","APOAPSIS":"548.442","INCLINATION":"53.0540","MEAN_ANOMALY":"294.8960","ECCENTRICITY":"0.00017770","MEAN_MOTION":"15.06400757","EPOCH":"2022-01-24T20:07:41.722176"},{"ARG_OF_PERICENTER":"74.3251","PERIOD":"95.592","OBJECT_ID":"2020-062B","PERIAPSIS":"545.944","OBJECT_NAME":"STARLINK-1654","DECAY_DATE":null,"REV_AT_EPOCH":"7750","REF_FRAME":"TEME","CENTER_NAME":"EARTH","BSTAR":"0.00002982200000","TIME_SYSTEM":"UTC","FILE":"3282614","TLE_LINE2":"2 46326  53.0543 291.9639 0001827  74.3251 285.7939 15.06401304 77508","ELEMENT_SET_NO":"999","CLASSIFICATION_TYPE":"U","EPHEMERIS_TYPE":"0","RCS_SIZE":"LARGE","GP_ID":"194570620","APOAPSIS":"548.475","RA_OF_ASC_NODE":"291.9639","COUNTRY_CODE":"US","MEAN_MOTION_DDOT":"0.0000000000000","EPOCH":"2022-01-24T21:06:42.332832","MEAN_MOTION":"15.06401304","ECCENTRICITY":"0.00018270","INCLINATION":"53.0543","MEAN_ANOMALY":"285.7939","TLE_LINE1":"1 46326U 20062B   22024.87965663  .00000163  00000-0  29822-4 0  9998","SITE":"AFETR","OBJECT_TYPE":"PAYLOAD","SEMIMAJOR_AXIS":"6925.345","LAUNCH_DATE":"2020-09-03","MEAN_MOTION_DOT":"0.00000163","MEAN_ELEMENT_THEORY":"SGP4","NORAD_CAT_ID":"46326"},{"MEAN_MOTION":"15.06404999","EPOCH":"2022-01-24T22:11:45.672288","INCLINATION":"53.0542","MEAN_ANOMALY":"301.5096","ECCENTRICITY":"0.00018110","COUNTRY_CODE":"US","RA_OF_ASC_NODE":"291.7823","APOAPSIS":"548.452","MEAN_MOTION_DDOT":"0.0000000000000","MEAN_ELEMENT_THEORY":"SGP4","NORAD_CAT_ID":"46327","TLE_LINE1":"1 46327U 20062C   22024.92483417  .00000561  00000-0  56552-4 0  9999","OBJECT_TYPE":"PAYLOAD","SITE":"AFETR","MEAN_MOTION_DOT":"0.00000561","SEMIMAJOR_AXIS":"6925.333","LAUNCH_DATE":"2020-09-03","DECAY_DATE":null,"OBJECT_NAME":"STARLINK-1673","PERIOD":"95.592","ARG_OF_PERICENTER":"58.6070","PERIAPSIS":"545.944","OBJECT_ID":"2020-062C","GP_ID":"194569611","RCS_SIZE":"LARGE","TIME_SYSTEM":"UTC","FILE":"3282614","CENTER_NAME":"EARTH","BSTAR":"0.00005655200000","REF_FRAME":"TEME","REV_AT_EPOCH":"7750","ELEMENT_SET_NO":"999","CLASSIFICATION_TYPE":"U","EPHEMERIS_TYPE":"0","TLE_LINE2":"2 46327  53.0542 291.7823 0001811  58.6070 301.5096 15.06404999 77502"},{"EPHEMERIS_TYPE":"0","ELEMENT_SET_NO":"999","CLASSIFICATION_TYPE":"U","TLE_LINE2":"2 46328  53.0535 271.8645 0001632  58.0648 302.0499 15.06403661 77780","TIME_SYSTEM":"UTC","FILE":"3282614","BSTAR":"-0.00006920700000","CENTER_NAME":"EARTH","REF_FRAME":"TEME","REV_AT_EPOCH":"7778","GP_ID":"194569619","RCS_SIZE":"LARGE","PERIAPSIS":"546.072","OBJECT_ID":"2020-062D","PERIOD":"95.592","ARG_OF_PERICENTER":"58.0648","DECAY_DATE":null,"OBJECT_NAME":"STARLINK-1686","MEAN_MOTION_DOT":"-0.00001312","SEMIMAJOR_AXIS":"6925.337","LAUNCH_DATE":"2020-09-03","SITE":"AFETR","TLE_LINE1":"1 46328U 20062D   22024.90456927 -.00001312  00000-0 -69207-4 0  9992","OBJECT_TYPE":"PAYLOAD","NORAD_CAT_ID":"46328","MEAN_ELEMENT_THEORY":"SGP4","MEAN_MOTION_DDOT":"0.0000000000000","COUNTRY_CODE":"US","RA_OF_ASC_NODE":"271.8645","APOAPSIS":"548.333","INCLINATION":"53.0535","MEAN_ANOMALY":"302.0499","ECCENTRICITY":"0.00016320","MEAN_MOTION":"15.06403661","EPOCH":"2022-01-24T21:42:34.784928"},{"MEAN_ELEMENT_THEORY":"SGP4","NORAD_CAT_ID":"46329","TLE_LINE1":"1 46329U 20062E   22024.93773736 -.00000824  00000-0 -36389-4 0  9998","OBJECT_TYPE":"PAYLOAD","SITE":"AFETR","MEAN_MOTION_DOT":"-0.00000824","LAUNCH_DATE":"2020-09-03","SEMIMAJOR_AXIS":"6925.342","MEAN_MOTION":"15.06402174","EPOCH":"2022-01-24T22:30:20.507904","INCLINATION":"53.0537","MEAN_ANOMALY":"294.3815","ECCENTRICITY":"0.00018050","COUNTRY_CODE":"US","RA_OF_ASC_NODE":"271.7086","APOAPSIS":"548.457","MEAN_MOTION_DDOT":"0.0000000000000","GP_ID":"194569869","RCS_SIZE":"LARGE","TIME_SYSTEM":"UTC","FILE":"3282614","CENTER_NAME":"EARTH","BSTAR":"-0.00003638900000","REF_FRAME":"TEME","REV_AT_EPOCH":"7778","EPHEMERIS_TYPE":"0","ELEMENT_SET_NO":"999","CLASSIFICATION_TYPE":"U","TLE_LINE2":"2 46329  53.0537 271.7086 0001805  65.7362 294.3815 15.06402174 77784","DECAY_DATE":null,"OBJECT_NAME":"STARLINK-1695","PERIOD":"95.592","ARG_OF_PERICENTER":"65.7362","PERIAPSIS":"545.957","OBJECT_ID":"2020-062E"}];
